{
    "links": {
        "self": "http://www.neowsapp.com/rest/v1/neo/3614638?api_key=iIulBulltgU6a56xZRHN4H3l9WmuAYTsLGpBGhQ2"
    },
    "id": "3614638",
    "neo_reference_id": "3614638",
    "name": "(2012 UQ138)",
    "designation": "2012 UQ138",
    "nasa_jpl_url": "http://ssd.jpl.nasa.gov/sbdb.cgi?sstr=3614638",
    "absolute_magnitude_h": 23.4,
    "estimated_diameter": {
        "kilometers": {
            "estimated_diameter_min": 0.0555334912,
            "estimated_diameter_max": 0.1241766613
        },
        "meters": {
            "estimated_diameter_min": 55.5334911581,
            "estimated_diameter_max": 124.1766612574
        },
        "miles": {
            "estimated_diameter_min": 0.0345069009,
            "estimated_diameter_max": 0.0771597762
        },
        "feet": {
            "estimated_diameter_min": 182.1964991311,
            "estimated_diameter_max": 407.4037573197
        }
    },
    "is_potentially_hazardous_asteroid": false,
    "close_approach_data": [
        {
            "close_approach_date": "2012-10-31",
            "close_approach_date_full": "2012-Oct-31 21:23",
            "epoch_date_close_approach": 1351718580000,
            "relative_velocity": {
                "kilometers_per_second": "1.8669861156",
                "kilometers_per_hour": "6721.1500160726",
                "miles_per_hour": "4176.2612419313"
            },
            "miss_distance": {
                "astronomical": "0.2892201155",
                "lunar": "112.5066249295",
                "kilometers": "43266713.239953985",
                "miles": "26884688.947715593"
            },
            "orbiting_body": "Earth"
        }
    ],
    "orbital_data": {
        "orbit_id": "9",
        "orbit_determination_date": "2017-04-06 08:48:18",
        "first_observation_date": "2012-10-23",
        "last_observation_date": "2012-11-15",
        "data_arc_in_days": 23,
        "observations_used": 19,
        "orbit_uncertainty": "7",
        "minimum_orbit_intersection": ".288293",
        "jupiter_tisserand_invariant": "3.496",
        "epoch_osculation": "2459000.5",
        "eccentricity": ".43548709601146",
        "semi_major_axis": "2.246650119177624",
        "inclination": "4.317384580570889",
        "ascending_node_longitude": "330.9902629289174",
        "orbital_period": "1229.990030879118",
        "perihelion_distance": "1.26826298302316",
        "perihelion_argument": "72.36155573722726",
        "aphelion_distance": "3.225037255332089",
        "perihelion_time": "2458701.313148841934",
        "mean_anomaly": "87.56759299904373",
        "mean_motion": ".2926852990366883",
        "equinox": "J2000",
        "orbit_class": {
            "orbit_class_type": "AMO",
            "orbit_class_description": "Near-Earth asteroid orbits similar to that of 1221 Amor",
            "orbit_class_range": "1.017 AU < q (perihelion) < 1.3 AU"
        }
    },
    "is_sentry_object": false
}